FENGYUN 1C DEB          
1 31047U 99025BER 17346.31515253  .00000221  00000-0  14955-3 0  9998
2 31047  98.8713  17.1878 0027232 186.0086 234.0860 14.10073639551750
